STARLINK-2012
1 17635C 21012R   21326.10451380 -.00008277  00000-0 -55467-3 0  3267
2 17635  53.0534 178.2575 0002494  66.2858 148.3133 15.06396404    18
